NORAD_CAT_ID,OBJECT_NAME,OBJECT_TYPE,EPOCH,MEAN_MOTION,ECCENTRICITY,INCLINATION,RA_OF_ASC_NODE,ARG_OF_PERICENTER,MEAN_ANOMALY,BSTAR,MEAN_MOTION_DOT,MEAN_MOTION_DDOT,TLE_LINE0,TLE_LINE1,TLE_LINE2,SEMIMAJOR_AXIS,PERIOD,APOGEE,PERIGEE,DECAYED
51864.0,STARLINK-3548,PAYLOAD,2023-01-27 09:00:36,15.08838658,0.0001312,53.2158,74.7347,97.9588,262.1553,0.00014276,1.985e-05,0.0,0 STARLINK-3548,1 51864U 22022N   23027.37542170  .00001985  00000-0  14276-3 0  9991,2 51864  53.2158  74.7347 0001312  97.9588 262.1553 15.08838658 51467,6917.884,95.438,540.6569999999999,538.842,0.0
51864.0,STARLINK-3548,PAYLOAD,2023-01-27 20:08:18,15.08842274,0.0001277,53.2156,72.6529,97.0647,263.04900000000004,6.9618e-05,8.2e-06,0.0,0 STARLINK-3548,1 51864U 22022N   23027.83910043  .00000820  00000-0  69618-4 0  9998,2 51864  53.2156  72.6529 0001277  97.0647 263.0490 15.08842274 51538,6917.8730000000005,95.437,540.622,538.855,0.0
51864.0,STARLINK-3548,PAYLOAD,2023-01-28 10:26:46,15.0884133,0.0001538,53.2166,69.977,84.289,275.8278,-3.057e-05,-7.75e-06,0.0,0 STARLINK-3548,1 51864U 22022N   23028.43526404 -.00000775  00000-0 -30570-4 0  9995,2 51864  53.2166  69.9770 0001538  84.2890 275.8278 15.08841330 51621,6917.876,95.437,540.805,538.677,0.0
51864.0,STARLINK-3548,PAYLOAD,2023-01-28 19:59:05,15.08839002,0.0001396,53.2161,68.1914,90.4913,269.6239,-1.8309e-05,-5.79e-06,0.0,0 STARLINK-3548,1 51864U 22022N   23028.83270388 -.00000579  00000-0 -18309-4 0  9994,2 51864  53.2161  68.1914 0001396  90.4913 269.6239 15.08839002 51681,6917.883,95.438,540.714,538.783,0.0
51864.0,STARLINK-3548,PAYLOAD,2023-01-29 19:49:52,15.08840367,0.0001488,53.216,63.7317,84.65,275.4662,5.6506e-05,6.11e-06,0.0,0 STARLINK-3548,1 51864U 22022N   23029.82630072  .00000611  00000-0  56506-4 0  9990,2 51864  53.2160  63.7317 0001488  84.6500 275.4662 15.08840367 51835,6917.879,95.438,540.774,538.715,0.0
51864.0,STARLINK-3548,PAYLOAD,2023-01-30 05:22:11,15.08836673,0.0001556,53.2158,61.9476,85.1938,274.9232,8.1847e-05,1.015e-05,0.0,0 STARLINK-3548,1 51864U 22022N   23030.22374284  .00001015  00000-0  81847-4 0  9991,2 51864  53.2158  61.9476 0001556  85.1938 274.9232 15.08836673 51893,6917.891,95.438,540.832,538.679,0.0
51864.0,STARLINK-3548,PAYLOAD,2023-01-30 06:57:34,15.08838505,0.0001626,53.2158,61.6502,84.9338,275.184,5.6218e-05,6.07e-06,0.0,0 STARLINK-3548,1 51864U 22022N   23030.28998256  .00000607  00000-0  56218-4 0  9998,2 51864  53.2158  61.6502 0001626  84.9338 275.1840 15.08838505 51905,6917.885,95.438,540.875,538.625,0.0
51864.0,STARLINK-3548,PAYLOAD,2023-01-31 11:34:30,15.08839838,0.0001416,53.215,56.2955,93.4406,266.6748,2.6628e-05,1.36e-06,0.0,0 STARLINK-3548,1 51864U 22022N   23031.48230268  .00000136  00000-0  26628-4 0  9992,2 51864  53.2150  56.2955 0001416  93.4406 266.6748 15.08839838 52089,6917.881,95.438,540.725,538.766,0.0
51864.0,STARLINK-3548,PAYLOAD,2023-02-01 11:25:17,15.08845098,0.00014,53.2159,51.835,87.8094,272.3058,0.00016328,2.312e-05,0.0,0 STARLINK-3548,1 51864U 22022N   23032.47589500  .00002312  00000-0  16328-3 0  9991,2 51864  53.2159  51.8350 0001400  87.8094 272.3058 15.08845098 52231,6917.865,95.437,540.698,538.761,0.0
51864.0,STARLINK-3548,PAYLOAD,2023-02-01 17:46:50,15.08835651,0.0001451,53.2171,50.6432,85.6973,274.4184,3.5214e-05,2.72e-06,0.0,0 STARLINK-3548,1 51864U 22022N   23032.74086469  .00000272  00000-0  35214-4 0  9996,2 51864  53.2171  50.6432 0001451  85.6973 274.4184 15.08835651 52272,6917.894,95.438,540.762,538.755,0.0
51864.0,STARLINK-3548,PAYLOAD,2023-02-02 01:43:46,15.08830033,0.0001433,53.2152,49.1582,96.754,263.3615,-3.5379e-05,-8.51e-06,0.0,0 STARLINK-3548,1 51864U 22022N   23033.07207137 -.00000851  00000-0 -35379-4 0  9997,2 51864  53.2152  49.1582 0001433  96.7540 263.3615 15.08830033 52324,6917.911,95.438,540.767,538.785,0.0
51864.0,STARLINK-3548,PAYLOAD,2023-02-02 11:16:05,15.08836775,0.0001219,53.2162,47.3749,89.2946,270.8186,7.336e-06,-1.71e-06,0.0,0 STARLINK-3548,1 51864U 22022N   23033.46950763 -.00000171  00000-0  73360-5 0  9997,2 51864  53.2162  47.3749 0001219  89.2946 270.8186 15.08836775 52380,6917.89,95.438,540.599,538.912,0.0
51864.0,STARLINK-3548,PAYLOAD,2023-02-02 23:59:10,15.08837302,0.00013,53.2168,44.9959,93.3624,266.7517,4.7197e-05,4.63e-06,0.0,0 STARLINK-3548,1 51864U 22022N   23033.99942723  .00000463  00000-0  47197-4 0  9993,2 51864  53.2168  44.9959 0001300  93.3624 266.7517 15.08837302 52460,6917.889,95.438,540.653,538.854,0.0
51864.0,STARLINK-3548,PAYLOAD,2023-02-03 07:56:05,15.08848641,0.0001313,53.2174,43.5088,94.6901,265.4241,6.2083e-05,7.01e-06,0.0,0 STARLINK-3548,1 51864U 22022N   23034.33062067  .00000701  00000-0  62083-4 0  9992,2 51864  53.2174  43.5088 0001313  94.6901 265.4241 15.08848641 52515,6917.854,95.437,540.627,538.811,0.0
51864.0,STARLINK-3548,PAYLOAD,2023-02-04 07:46:53,15.08839879,0.0001201,53.2171,39.0481,93.5138,266.5991,0.00010862,1.441e-05,0.0,0 STARLINK-3548,1 51864U 22022N   23035.32422702  .00001441  00000-0  10862-3 0  9997,2 51864  53.2171  39.0481 0001201  93.5138 266.5991 15.08839879 52668,6917.881,95.438,540.577,538.915,0.0
51864.0,STARLINK-3548,PAYLOAD,2023-02-05 09:13:03,15.08846681,0.000116,53.2164,34.2893,96.1524,263.9601,6.1258e-05,6.87e-06,0.0,0 STARLINK-3548,1 51864U 22022N   23036.38406420  .00000687  00000-0  61258-4 0  9990,2 51864  53.2164  34.2893 0001160  96.1524 263.9601 15.08846681 52822,6917.86,95.437,540.527,538.922,0.0
51864.0,STARLINK-3548,PAYLOAD,2023-02-06 09:03:50,15.08843994,0.000133,53.2168,29.8273,88.0935,272.021,0.00010383,1.365e-05,0.0,0 STARLINK-3548,1 51864U 22022N   23037.37766645  .00001365  00000-0  10383-3 0  9994,2 51864  53.2168  29.8273 0001330  88.0935 272.0210 15.08843994 52970,6917.868,95.437,540.653,538.813,0.0
51864.0,STARLINK-3548,PAYLOAD,2023-02-07 08:54:36,15.08859324,0.0001326,53.2151,25.367,99.9342,260.1799,0.00032318,4.862e-05,0.0,0 STARLINK-3548,1 51864U 22022N   23038.37125727  .00004862  00000-0  32318-3 0  9992,2 51864  53.2151  25.3670 0001326  99.9342 260.1799 15.08859324 53124,6917.821,95.436,540.604,538.769,0.0
51864.0,STARLINK-3548,PAYLOAD,2023-02-08 05:34:37,15.088528,0.0001054,53.2164,21.5027,92.9743,267.137,0.00012272,1.666e-05,0.0,0 STARLINK-3548,1 51864U 22022N   23039.23237829  .00001666  00000-0  12272-3 0  9991,2 51864  53.2164  21.5027 0001054  92.9743 267.1370 15.08852800 53256,6917.841,95.437,540.435,538.977,0.0
51864.0,STARLINK-3548,PAYLOAD,2023-02-08 08:45:23,15.08857833,0.0001087,53.2169,20.9068,93.7565,266.3551,0.00027969,4.168e-05,0.0,0 STARLINK-3548,1 51864U 22022N   23039.36485612  .00004168  00000-0  27969-3 0  9999,2 51864  53.2169  20.9068 0001087  93.7565 266.3551 15.08857833 53271,6917.826,95.436,540.443,538.939,0.0
51864.0,STARLINK-3548,PAYLOAD,2023-02-09 05:25:25,15.08840524,9.87e-05,53.2163,17.0416,79.3065,280.8039,0.00020096,2.912e-05,0.0,0 STARLINK-3548,1 51864U 22022N   23040.22598490  .00002912  00000-0  20096-3 0  9994,2 51864  53.2163  17.0416 0000987  79.3065 280.8039 15.08840524 53408,6917.879,95.438,540.427,539.061,0.0
51864.0,STARLINK-3548,PAYLOAD,2023-02-09 07:00:48,15.08838738,9.87e-05,53.2162,16.744,81.161,278.9494,0.00051915,7.984e-05,0.0,0 STARLINK-3548,1 51864U 22022N   23040.29222694  .00007984  00000-0  51915-3 0  9999,2 51864  53.2162  16.7440 0000987  81.1610 278.9494 15.08838738 53415,6917.884,95.438,540.432,539.066,0.0
51864.0,STARLINK-3548,PAYLOAD,2023-02-10 05:16:12,15.08848744,9.49e-05,53.2167,12.5854,93.3344,266.7757,0.00096906,0.00015172,0.0,0 STARLINK-3548,1 51864U 22022N   23041.21959122  .00015172  00000-0  96906-3 0  9992,2 51864  53.2167  12.5854 0000949  93.3344 266.7757 15.08848744 53550,6917.854,95.437,540.375,539.062,0.0
51864.0,STARLINK-3548,PAYLOAD,2023-02-11 05:06:59,15.08870821,0.0001114,53.2158,8.1211,76.1675,283.9441,0.001112,0.00017469,0.0,0 STARLINK-3548,1 51864U 22022N   23042.21318512  .00017469  00000-0  11120-2 0  9990,2 51864  53.2158   8.1211 0001114  76.1675 283.9441 15.08870821 53708,6917.786,95.436,540.422,538.881,0.0
51864.0,STARLINK-3548,PAYLOAD,2023-02-11 21:00:50,15.08860002,0.0001636,53.2158,5.1505,67.6426,292.4739,0.0012008,0.00018885,0.0,0 STARLINK-3548,1 51864U 22022N   23042.87558539  .00018885  00000-0  12008-2 0  9996,2 51864  53.2158   5.1505 0001636  67.6426 292.4739 15.08860002 53805,6917.819,95.436,540.816,538.552,0.0
51864.0,STARLINK-3548,PAYLOAD,2023-02-12 06:33:09,15.08856376,0.0001231,53.2151,3.3636,62.4564,297.6553,0.0028105,0.00044745,0.0,0 STARLINK-3548,1 51864U 22022N   23043.27302663  .00044745  00000-0  28105-2 0  9995,2 51864  53.2151   3.3636 0001231  62.4564 297.6553 15.08856376 53866,6917.83,95.437,540.547,538.844,0.0
51864.0,STARLINK-3548,PAYLOAD,2023-02-12 14:30:05,15.0883287,0.0002287,53.2188,1.875,88.1776,271.9478,0.00076727,0.00011942,0.0,0 STARLINK-3548,1 51864U 22022N   23043.60423484  .00011942  00000-0  76727-3 0  9994,2 51864  53.2188   1.8750 0002287  88.1776 271.9478 15.08832870 53918,6917.902,95.438,541.349,538.185,0.0
51864.0,STARLINK-3548,PAYLOAD,2023-02-13 14:20:53,15.08833272,0.0001127,53.2153,357.4151,85.3716,274.7404,0.00063897,9.894e-05,0.0,0 STARLINK-3548,1 51864U 22022N   23044.59783962  .00009894  00000-0  63897-3 0  9990,2 51864  53.2153 357.4151 0001127  85.3716 274.7404 15.08833272 54064,6917.901,95.438,540.546,538.986,0.0
51864.0,STARLINK-3548,PAYLOAD,2023-02-14 03:03:58,15.08844491,0.0001068,53.215,355.036,90.2101,269.9014,0.00068175,0.0001058,0.0,0 STARLINK-3548,1 51864U 22022N   23045.12775972  .00010580  00000-0  68175-3 0  9990,2 51864  53.2150 355.0360 0001068  90.2101 269.9014 15.08844491 54141,6917.867,95.437,540.47,538.993,0.0
51864.0,STARLINK-3548,PAYLOAD,2023-02-15 02:54:45,15.08847207,0.0001201,53.216,350.576,78.9001,281.2126,0.00029143,4.354e-05,0.0,0 STARLINK-3548,1 51864U 22022N   23046.12135984  .00004354  00000-0  29143-3 0  9998,2 51864  53.2160 350.5760 0001201  78.9001 281.2126 15.08847207 54292,6917.858,95.437,540.554,538.893,0.0
